[{"OBJECT_NAME":"FLOCK 4Q-7","OBJECT_ID":"2023-174BQ","EPOCH":"2026-03-14T17:18:27.826560","MEAN_MOTION":15.49624848,"ECCENTRICITY":0.00074812,"INCLINATION":97.3931,"RA_OF_ASC_NODE":162.4268,"ARG_OF_PERICENTER":123.3058,"MEAN_ANOMALY":236.891,"EPHEMERIS_TYPE":0,"CLASSIFICATION_TYPE":"U","NORAD_CAT_ID":58318,"ELEMENT_SET_NO":999,"REV_AT_EPOCH":13109,"BSTAR":0.0008237308,"MEAN_MOTION_DOT":0.00045708,"MEAN_MOTION_DDOT":0},{"OBJECT_NAME":"FLOCK 4Q-2","OBJECT_ID":"2023-174BS","EPOCH":"2026-03-14T22:07:30.462240","MEAN_MOTION":15.45327293,"ECCENTRICITY":0.00079178,"INCLINATION":97.3857,"RA_OF_ASC_NODE":160.4209,"ARG_OF_PERICENTER":123.3508,"MEAN_ANOMALY":236.85,"EPHEMERIS_TYPE":0,"CLASSIFICATION_TYPE":"U","NORAD_CAT_ID":58320,"ELEMENT_SET_NO":999,"REV_AT_EPOCH":13102,"BSTAR":0.00067158281,"MEAN_MOTION_DOT":0.0003205,"MEAN_MOTION_DDOT":0},{"OBJECT_NAME":"FLOCK 4Q-9","OBJECT_ID":"2023-174BU","EPOCH":"2026-03-14T16:23:17.119392","MEAN_MOTION":15.44991596,"ECCENTRICITY":0.00081657,"INCLINATION":97.3902,"RA_OF_ASC_NODE":160.2226,"ARG_OF_PERICENTER":126.0623,"MEAN_ANOMALY":234.1383,"EPHEMERIS_TYPE":0,"CLASSIFICATION_TYPE":"U","NORAD_CAT_ID":58322,"ELEMENT_SET_NO":999,"REV_AT_EPOCH":13097,"BSTAR":0.00070978582,"MEAN_MOTION_DOT":0.00033502,"MEAN_MOTION_DDOT":0},{"OBJECT_NAME":"FLOCK 4Q-4","OBJECT_ID":"2023-174BZ","EPOCH":"2026-03-14T19:34:13.543392","MEAN_MOTION":15.4455006,"ECCENTRICITY":0.00078279,"INCLINATION":97.3854,"RA_OF_ASC_NODE":159.723,"ARG_OF_PERICENTER":142.2205,"MEAN_ANOMALY":217.9594,"EPHEMERIS_TYPE":0,"CLASSIFICATION_TYPE":"U","NORAD_CAT_ID":58327,"ELEMENT_SET_NO":999,"REV_AT_EPOCH":13097,"BSTAR":0.00061832306,"MEAN_MOTION_DOT":0.00028719,"MEAN_MOTION_DDOT":0},{"OBJECT_NAME":"FLOCK 4Q-13","OBJECT_ID":"2023-174CA","EPOCH":"2026-03-14T17:04:22.487232","MEAN_MOTION":15.47299193,"ECCENTRICITY":0.0007752,"INCLINATION":97.401,"RA_OF_ASC_NODE":162.0688,"ARG_OF_PERICENTER":135.0599,"MEAN_ANOMALY":225.1279,"EPHEMERIS_TYPE":0,"CLASSIFICATION_TYPE":"U","NORAD_CAT_ID":58328,"ELEMENT_SET_NO":999,"REV_AT_EPOCH":13104,"BSTAR":0.00072436985,"MEAN_MOTION_DOT":0.00037018,"MEAN_MOTION_DDOT":0},{"OBJECT_NAME":"FLOCK 4Q-21","OBJECT_ID":"2023-174CB","EPOCH":"2026-03-14T17:09:42.555168","MEAN_MOTION":15.57919748,"ECCENTRICITY":0.0005708,"INCLINATION":97.3923,"RA_OF_ASC_NODE":165.2307,"ARG_OF_PERICENTER":140.6848,"MEAN_ANOMALY":219.4823,"EPHEMERIS_TYPE":0,"CLASSIFICATION_TYPE":"U","NORAD_CAT_ID":58329,"ELEMENT_SET_NO":999,"REV_AT_EPOCH":13127,"BSTAR":0.00078008974,"MEAN_MOTION_DOT":0.00058518,"MEAN_MOTION_DDOT":0},{"OBJECT_NAME":"FLOCK 4BE-18","OBJECT_ID":"2024-149N","EPOCH":"2026-03-14T16:27:42.123744","MEAN_MOTION":15.38530438,"ECCENTRICITY":0.00035967,"INCLINATION":97.3773,"RA_OF_ASC_NODE":156.6438,"ARG_OF_PERICENTER":219.818,"MEAN_ANOMALY":140.2802,"EPHEMERIS_TYPE":0,"CLASSIFICATION_TYPE":"U","NORAD_CAT_ID":60480,"ELEMENT_SET_NO":999,"REV_AT_EPOCH":8776,"BSTAR":0.00072192677,"MEAN_MOTION_DOT":0.0002744,"MEAN_MOTION_DDOT":0},{"OBJECT_NAME":"FLOCK 4BE-7","OBJECT_ID":"2024-149P","EPOCH":"2026-03-14T16:57:59.067360","MEAN_MOTION":15.36478089,"ECCENTRICITY":0.00026181,"INCLINATION":97.3796,"RA_OF_ASC_NODE":156.239,"ARG_OF_PERICENTER":212.7074,"MEAN_ANOMALY":147.4009,"EPHEMERIS_TYPE":0,"CLASSIFICATION_TYPE":"U","NORAD_CAT_ID":60481,"ELEMENT_SET_NO":999,"REV_AT_EPOCH":8772,"BSTAR":0.00065464853,"MEAN_MOTION_DOT":0.00023264,"MEAN_MOTION_DDOT":0},{"OBJECT_NAME":"FLOCK 4BE-26","OBJECT_ID":"2024-149S","EPOCH":"2026-03-14T19:23:58.835904","MEAN_MOTION":15.45435773,"ECCENTRICITY":0.00064173,"INCLINATION":97.3754,"RA_OF_ASC_NODE":156.7397,"ARG_OF_PERICENTER":228.0499,"MEAN_ANOMALY":132.0203,"EPHEMERIS_TYPE":0,"CLASSIFICATION_TYPE":"U","NORAD_CAT_ID":60484,"ELEMENT_SET_NO":999,"REV_AT_EPOCH":8778,"BSTAR":0.0024868095,"MEAN_MOTION_DOT":0.00120665,"MEAN_MOTION_DDOT":0},{"OBJECT_NAME":"FLOCK 4BE-36","OBJECT_ID":"2024-149U","EPOCH":"2026-03-14T17:05:27.530880","MEAN_MOTION":15.39417077,"ECCENTRICITY":0.00031447,"INCLINATION":97.3777,"RA_OF_ASC_NODE":157.224,"ARG_OF_PERICENTER":229.8225,"MEAN_ANOMALY":130.2746,"EPHEMERIS_TYPE":0,"CLASSIFICATION_TYPE":"U","NORAD_CAT_ID":60486,"ELEMENT_SET_NO":999,"REV_AT_EPOCH":8780,"BSTAR":0.00074486297,"MEAN_MOTION_DOT":0.00029151,"MEAN_MOTION_DDOT":0},{"OBJECT_NAME":"FLOCK 4BE-25","OBJECT_ID":"2024-149V","EPOCH":"2026-03-14T17:19:18.030144","MEAN_MOTION":15.36191214,"ECCENTRICITY":0.00020105,"INCLINATION":97.3834,"RA_OF_ASC_NODE":156.4036,"ARG_OF_PERICENTER":198.6674,"MEAN_ANOMALY":161.4497,"EPHEMERIS_TYPE":0,"CLASSIFICATION_TYPE":"U","NORAD_CAT_ID":60487,"ELEMENT_SET_NO":999,"REV_AT_EPOCH":8772,"BSTAR":0.00058968592,"MEAN_MOTION_DOT":0.00020748,"MEAN_MOTION_DDOT":0},{"OBJECT_NAME":"FLOCK 4BE-31","OBJECT_ID":"2024-149W","EPOCH":"2026-03-14T19:24:04.795776","MEAN_MOTION":15.40237806,"ECCENTRICITY":0.00022621,"INCLINATION":97.3834,"RA_OF_ASC_NODE":157.9538,"ARG_OF_PERICENTER":217.7011,"MEAN_ANOMALY":142.4077,"EPHEMERIS_TYPE":0,"CLASSIFICATION_TYPE":"U","NORAD_CAT_ID":60488,"ELEMENT_SET_NO":999,"REV_AT_EPOCH":8783,"BSTAR":0.0006866728,"MEAN_MOTION_DOT":0.00027593,"MEAN_MOTION_DDOT":0},{"OBJECT_NAME":"FLOCK 4BE-20","OBJECT_ID":"2024-149X","EPOCH":"2026-03-14T16:51:25.059168","MEAN_MOTION":15.35445874,"ECCENTRICITY":0.00031594,"INCLINATION":97.3743,"RA_OF_ASC_NODE":155.5009,"ARG_OF_PERICENTER":221.0488,"MEAN_ANOMALY":139.0519,"EPHEMERIS_TYPE":0,"CLASSIFICATION_TYPE":"U","NORAD_CAT_ID":60489,"ELEMENT_SET_NO":999,"REV_AT_EPOCH":8770,"BSTAR":0.0005740235,"MEAN_MOTION_DOT":0.00019718,"MEAN_MOTION_DDOT":0},{"OBJECT_NAME":"FLOCK 4BE-23","OBJECT_ID":"2024-149Y","EPOCH":"2026-03-14T19:12:53.625024","MEAN_MOTION":15.35090519,"ECCENTRICITY":0.00026192,"INCLINATION":97.3821,"RA_OF_ASC_NODE":155.924,"ARG_OF_PERICENTER":228.6982,"MEAN_ANOMALY":131.4036,"EPHEMERIS_TYPE":0,"CLASSIFICATION_TYPE":"U","NORAD_CAT_ID":60490,"ELEMENT_SET_NO":999,"REV_AT_EPOCH":8770,"BSTAR":0.0005289936,"MEAN_MOTION_DOT":0.00017955,"MEAN_MOTION_DDOT":0},{"OBJECT_NAME":"FLOCK 4BE-15","OBJECT_ID":"2024-149Z","EPOCH":"2026-03-14T17:03:08.034624","MEAN_MOTION":15.4131592,"ECCENTRICITY":0.00037301,"INCLINATION":97.3753,"RA_OF_ASC_NODE":156.9283,"ARG_OF_PERICENTER":284.804,"MEAN_ANOMALY":75.2794,"EPHEMERIS_TYPE":0,"CLASSIFICATION_TYPE":"U","NORAD_CAT_ID":60491,"ELEMENT_SET_NO":999,"REV_AT_EPOCH":8779,"BSTAR":0.002581721,"MEAN_MOTION_DOT":0.00108892,"MEAN_MOTION_DDOT":0},{"OBJECT_NAME":"FLOCK 4BE-17","OBJECT_ID":"2024-149AA","EPOCH":"2026-03-14T17:00:14.806944","MEAN_MOTION":15.36852006,"ECCENTRICITY":0.00027119,"INCLINATION":97.3819,"RA_OF_ASC_NODE":156.5246,"ARG_OF_PERICENTER":214.8949,"MEAN_ANOMALY":145.2118,"EPHEMERIS_TYPE":0,"CLASSIFICATION_TYPE":"U","NORAD_CAT_ID":60492,"ELEMENT_SET_NO":999,"REV_AT_EPOCH":8773,"BSTAR":0.00063948529,"MEAN_MOTION_DOT":0.00022997,"MEAN_MOTION_DDOT":0}]
