FLOCK 4Q-7              
1 58318U 23174BQ  26073.72115540  .00045708  00000+0  82373-3 0  9994
2 58318  97.3931 162.4268 0007481 123.3058 236.8910 15.49624848131094
FLOCK 4Q-2              
1 58320U 23174BS  26073.92188035  .00032050  00000+0  67158-3 0  9998
2 58320  97.3857 160.4209 0007917 123.3508 236.8500 15.45327293131029
FLOCK 4Q-9              
1 58322U 23174BU  26073.68283703  .00033502  00000+0  70979-3 0  9999
2 58322  97.3902 160.2226 0008165 126.0623 234.1383 15.44991596130978
FLOCK 4Q-4              
1 58327U 23174BZ  26073.81543453  .00028719  00000+0  61832-3 0  9992
2 58327  97.3854 159.7230 0007827 142.2205 217.9594 15.44550060130977
FLOCK 4Q-13             
1 58328U 23174CA  26073.71137138  .00037018  00000+0  72437-3 0  9996
2 58328  97.4010 162.0688 0007752 135.0599 225.1279 15.47299193131040
FLOCK 4Q-21             
1 58329U 23174CB  26073.71507587  .00058518  00000+0  78009-3 0  9995
2 58329  97.3923 165.2307 0005708 140.6848 219.4823 15.57919748131276
FLOCK 4BE-18            
1 60480U 24149N   26073.68590421  .00027440  00000+0  72193-3 0  9992
2 60480  97.3773 156.6438 0003596 219.8180 140.2802 15.38530438 87766
FLOCK 4BE-7             
1 60481U 24149P   26073.70693365  .00023264  00000+0  65465-3 0  9991
2 60481  97.3796 156.2390 0002618 212.7074 147.4009 15.36478089 87728
FLOCK 4BE-26            
1 60484U 24149S   26073.80831986  .00120665  00000+0  24868-2 0  9992
2 60484  97.3754 156.7397 0006417 228.0499 132.0203 15.45435773 87784
FLOCK 4BE-36            
1 60486U 24149U   26073.71212420  .00029151  00000+0  74486-3 0  9990
2 60486  97.3777 157.2240 0003144 229.8225 130.2746 15.39417077 87809
FLOCK 4BE-25            
1 60487U 24149V   26073.72173646  .00020748  00000+0  58969-3 0  9999
2 60487  97.3834 156.4036 0002010 198.6674 161.4497 15.36191214 87729
FLOCK 4BE-31            
1 60488U 24149W   26073.80838884  .00027593  00000+0  68667-3 0  9992
2 60488  97.3834 157.9538 0002262 217.7011 142.4077 15.40237806 87838
FLOCK 4BE-20            
1 60489U 24149X   26073.70237337  .00019718  00000+0  57402-3 0  9993
2 60489  97.3743 155.5009 0003159 221.0488 139.0519 15.35445874 87706
FLOCK 4BE-23            
1 60490U 24149Y   26073.80062066  .00017955  00000+0  52899-3 0  9997
2 60490  97.3821 155.9240 0002619 228.6982 131.4036 15.35090519 87700
FLOCK 4BE-15            
1 60491U 24149Z   26073.71050966  .00108892  00000+0  25817-2 0  9994
2 60491  97.3753 156.9283 0003730 284.8040  75.2794 15.41315920 87795
FLOCK 4BE-17            
1 60492U 24149AA  26073.70850471  .00022997  00000+0  63949-3 0  9993
2 60492  97.3819 156.5246 0002711 214.8949 145.2118 15.36852006 87730
